STARLINK-3808           
1 52366U 22045AM  25154.83755020 -.00003756  00000+0 -21815-3 0  9994
2 52366  53.2170   0.9365 0001271  80.4860 279.6275 15.08814638173825
STARLINK-3817           
1 52367U 22045AN  25154.97739606 -.00000888  00000+0 -37703-4 0  9999
2 52367  53.2191   0.3071 0001438 101.2212 258.8942 15.08841955173849
STARLINK-3834           
1 52368U 22045AP  25155.29020012  .00003047  00000+0  20953-3 0  9996
2 52368  53.2182 358.9040 0001407  91.9439 268.1714 15.08824269173884
STARLINK-3841           
1 52369U 22045AQ  25155.30491358 -.00004653  00000+0 -27440-3 0  9998
2 52369  53.2199 358.8373 0001556  76.5633 283.5533 15.08845349173894
STARLINK-3827           
1 52370U 22045AR  25155.29851234  .00000203  00000+0  30871-4 0  9999
2 52370  53.2191 358.8755 0001389  92.1818 267.9334 15.08842475173897
STARLINK-3798           
1 52371U 22045AS  25155.29482946  .00003008  00000+0  20703-3 0  9998
2 52371  53.2187 358.8930 0001543  88.4300 271.6869 15.08830144173888
STARLINK-3796           
1 52372U 22045AT  25155.28650717 -.00000505  00000+0 -13625-4 0  9998
2 52372  53.2192 358.9204 0001580  95.0910 265.0263 15.08845748173883
STARLINK-3550           
1 52373U 22045AU  25154.94428441  .00000406  00000+0  43581-4 0  9990
2 52373  53.2181   0.4568 0001332  89.5677 270.5467 15.08828560173843
STARLINK-3762           
1 52374U 22045AV  25155.01420280  .00005140  00000+0  34079-3 0  9994
2 52374  53.2170   0.1430 0001402  94.9979 265.1173 15.08838310173859
STARLINK-3785           
1 52375U 22045AW  25155.28283658 -.00005422  00000+0 -32273-3 0  9999
2 52375  53.2183 358.9369 0001534 135.2970 224.8146 15.08848750173890
STARLINK-3767           
1 52376U 22045AX  25155.53674432 -.00002809  00000+0 -15845-3 0  9994
2 52376  53.2182 357.7977 0000853 107.3035 252.8050 15.08842577173938
STARLINK-3805           
1 52377U 22045AY  25155.29389751  .00002946  00000+0  20319-3 0  9997
2 52377  53.2189 359.1085 0001501  88.8530 271.2634 15.08830882173889
STARLINK-3806           
1 52378U 22045AZ  25155.26443711  .00002963  00000+0  20412-3 0  9995
2 52378  53.2181 359.0181 0001286  90.9605 269.1534 15.08846903173892
STARLINK-3800           
1 52379U 22045BA  25155.26811821  .00002753  00000+0  19097-3 0  9991
2 52379  53.2165 359.0025 0001300  89.7128 270.4013 15.08837676173899
STARLINK-3793           
1 52380U 22045BB  25155.24696934  .00003399  00000+0  23166-3 0  9996
2 52380  53.2182 349.1298 0001554 107.0994 253.0168 15.08819285174028
STARLINK-3799           
1 52382U 22045BD  25155.25708135 -.00000527  00000+0 -15068-4 0  9991
2 52382  53.2177 359.0638 0001003  82.7713 277.3393 15.08834388173893
STARLINK-3811           
1 52383U 22045BE  25154.94885439  .00009614  00000+0  62065-3 0  9992
2 52383  53.2181 350.4633 0001259  87.1936 272.9200 15.08878704173986
STARLINK-3870           
1 52451U 22049A   25155.50362990 -.00001955  00000+0 -10478-3 0  9990
2 52451  53.2162 237.9448 0001253  90.9388 269.1748 15.08833912170110
STARLINK-3909           
1 52452U 22049B   25155.51465827 -.00001158  00000+0 -54686-4 0  9990
2 52452  53.2178 237.7680 0001027  78.2370 281.8737 15.08827467170110
STARLINK-3872           
1 52453U 22049C   25155.49627463  .00003607  00000+0  24464-3 0  9993
2 52453  53.2165 237.9788 0001387  85.2584 274.8566 15.08836053170115
STARLINK-3888           
1 52454U 22049D   25155.49995643  .00001823  00000+0  13264-3 0  9996
2 52454  53.2174 237.9615 0001486  88.3948 271.7214 15.08829482170117
STARLINK-3890           
1 52455U 22049E   25155.49353558 -.00001511  00000+0 -76869-4 0  9997
2 52455  53.2172 237.9893 0001351  90.9190 269.1957 15.08834485170117
STARLINK-3896           
1 52456U 22049F   25155.48986254 -.00000934  00000+0 -40591-4 0  9993
2 52456  53.2170 238.0070 0001173  79.2662 280.8462 15.08838604170119
STARLINK-3899           
1 52457U 22049G   25155.55146458  .00010202  00000+0  65782-3 0  9991
2 52457  53.2152 237.7202 0001560  95.8254 264.2916 15.08859583170124
STARLINK-3898           
1 52458U 22049H   25155.54875160  .00001880  00000+0  13618-3 0  9993
2 52458  53.2150 237.7413 0001404  83.2380 276.8772 15.08839872170123
STARLINK-3856           
1 52459U 22049J   25155.46776774 -.00000110  00000+0  11206-4 0  9994
2 52459  53.2165 228.1064 0001326  93.3951 266.7193 15.08825276170246
STARLINK-3900           
1 52461U 22049L   25155.46499510 -.00000348  00000+0 -37793-5 0  9991
2 52461  53.2163 218.1174 0001373  91.9292 268.1857 15.08826267170381
STARLINK-3903           
1 52462U 22049M   25155.46135543 -.00001894  00000+0 -10098-3 0  9999
2 52462  53.2148 228.1429 0001407  82.1729 277.9422 15.08830807170240
STARLINK-3885           
1 52463U 22049N   25155.46131071 -.00000618  00000+0 -20758-4 0  9990
2 52463  53.2156 218.1328 0000990  84.3225 275.7880 15.08831253170383
STARLINK-3904           
1 52464U 22049P   25155.46407661  .00002156  00000+0  15356-3 0  9996
2 52464  53.2159 228.1237 0001422  89.8831 270.2324 15.08832123170246
STARLINK-3863           
1 52465U 22049Q   25155.45763069 -.00000257  00000+0  19154-5 0  9996
2 52465  53.2162 218.1518 0001296  85.1537 274.9604 15.08829518170384
STARLINK-3873           
1 52467U 22049S   25155.52295094  .00001023  00000+0  82329-4 0  9998
2 52467  53.2162 227.8591 0001131  87.2327 272.8794 15.08837900170259
STARLINK-3864           
1 52468U 22049T   25155.50823762 -.00001751  00000+0 -91988-4 0  9997
2 52468  53.2175 227.9279 0001343  90.4334 269.6812 15.08827913170255
STARLINK-3828           
1 52469U 22049U   25155.51559537  .00001141  00000+0  89743-4 0  9992
2 52469  53.2161 227.9011 0001231  91.5827 268.5306 15.08837819170252
STARLINK-3859           
1 52470U 22049V   25155.50088263  .00002818  00000+0  19518-3 0  9990
2 52470  53.2172 227.9589 0001293  90.8854 269.2286 15.08819818170250
STARLINK-3862           
1 52471U 22049W   25155.51286560 -.00000982  00000+0 -43681-4 0  9993
2 52471  53.2160 227.9165 0000570  64.7498 295.3553 15.08829832170253
STARLINK-3881           
1 52472U 22049X   25155.49719663 -.00000307  00000+0 -12139-5 0  9992
2 52472  53.2173 227.9768 0001406  94.1793 265.9360 15.08827219170257
STARLINK-3879           
1 52473U 22049Y   25155.50455372 -.00001925  00000+0 -10289-3 0  9998
2 52473  53.2180 227.9457 0001367  96.6974 263.4173 15.08838934170256
STARLINK-3855           
1 52474U 22049Z   25155.45123090  .00000469  00000+0  47575-4 0  9991
2 52474  53.2165 218.1898 0001253  89.0555 271.0581 15.08830619170380
STARLINK-3882           
1 52475U 22049AA  25155.51930116  .00004917  00000+0  32689-3 0  9995
2 52475  53.2161 228.0967 0001029  74.8985 285.2121 15.08832144170252
STARLINK-3835           
1 52476U 22049AB  25155.46966023 -.00000296  00000+0 -49104-6 0  9997
2 52476  53.2161 218.3377 0001169  91.4848 268.6278 15.08826882171620
STARLINK-3860           
1 52477U 22049AC  25155.45395844 -.00001301  00000+0 -63715-4 0  9994
2 52477  53.2160 218.1685 0001345  81.0723 279.0421 15.08829114171620
STARLINK-3825           
1 52478U 22049AD  25155.48982778 -.00001871  00000+0 -99511-4 0  9991
2 52478  53.2161 228.0067 0001238  95.1545 264.9589 15.08833632171498
STARLINK-3878           
1 52479U 22049AE  25155.43923076 -.00001190  00000+0 -56671-4 0  9997
2 52479  53.2169 218.2352 0001214  80.8648 279.2482 15.08841436171621
STARLINK-3839           
1 52480U 22049AF  25155.48615430 -.00003229  00000+0 -18499-3 0  9996
2 52480  53.2166 228.0249 0001002  90.4117 269.6989 15.08823908170254
STARLINK-3813           
1 52482U 22049AH  25155.49810768 -.00002665  00000+0 -14941-3 0  9991
2 52482  53.2165 217.9704 0001381  95.0651 265.0499 15.08843410170393
STARLINK-3875           
1 52483U 22049AJ  25155.44291413 -.00001605  00000+0 -82784-4 0  9991
2 52483  53.2166 218.2186 0001276  86.3364 273.7774 15.08839585171627
STARLINK-3887           
1 52484U 22049AK  25155.41623176 -.00000311  00000+0 -14219-5 0  9996
2 52484  53.2156 228.3360 0001340  96.3293 263.7852 15.08829594170249
STARLINK-3913           
1 52485U 22049AL  25155.43554833 -.00002248  00000+0 -12316-3 0  9997
2 52485  53.2162 218.2522 0001079  64.6600 295.4504 15.08845122170380
STARLINK-3918           
1 52486U 22049AM  25155.47511372 -.00000731  00000+0 -27835-4 0  9991
2 52486  53.2167 228.0729 0001307  94.6405 265.4736 15.08826728170255
STARLINK-3902           
1 52487U 22049AN  25155.44660662  .00000505  00000+0  49797-4 0  9994
2 52487  53.2166 218.3070 0001272  90.8959 269.2179 15.08829633171622
STARLINK-3892           
1 52488U 22049AP  25155.47142886 -.00000180  00000+0  67822-5 0  9991
2 52488  53.2149 228.0895 0001130  86.8493 273.2629 15.08832270170252
STARLINK-3923           
1 52489U 22049AQ  25155.47878767  .00001222  00000+0  94840-4 0  9992
2 52489  53.2171 228.0556 0001216  93.7830 266.3301 15.08840728170256
STARLINK-3914           
1 52490U 22049AR  25155.48707214  .00001280  00000+0  98524-4 0  9990
2 52490  53.2164 218.0207 0001108  85.0545 275.0574 15.08837245170393
STARLINK-3908           
1 52491U 22049AS  25155.49442569 -.00001191  00000+0 -56791-4 0  9994
2 52491  53.2158 217.9880 0001080  78.8034 281.3079 15.08839800170393
STARLINK-3916           
1 52492U 22049AT  25155.41346829 -.00002142  00000+0 -11655-3 0  9995
2 52492  53.2167 218.3507 0001174  82.3143 277.7982 15.08836299170380
STARLINK-3883           
1 52493U 22049AU  25155.49075019  .00000060  00000+0  21864-4 0  9993
2 52493  53.2165 218.0041 0001284  88.8662 271.2478 15.08835516170399
STARLINK-3857           
1 52494U 22049AV  25155.46867143 -.00000811  00000+0 -32860-4 0  9992
2 52494  53.2158 218.1006 0001008  86.7518 273.3589 15.08830196170390
STARLINK-3871           
1 52496U 22049AX  25155.43785426 -.00002229  00000+0 -12201-3 0  9995
2 52496  53.2162 213.2383 0001313  87.9290 272.1852 15.08839696170451
